OBJECT_NAME,OBJECT_ID,EPOCH,MEAN_MOTION,ECCENTRICITY,INCLINATION,RA_OF_ASC_NODE,ARG_OF_PERICENTER,MEAN_ANOMALY,EPHEMERIS_TYPE,CLASSIFICATION_TYPE,NORAD_CAT_ID,ELEMENT_SET_NO,REV_AT_EPOCH,BSTAR,MEAN_MOTION_DOT,MEAN_MOTION_DDOT
ONEWEB-0606,2022-166AE,2026-07-15T04:01:10.468992,13.21825834,.0002188,87.9233,238.4307,99.5733,260.5648,0,U,54670,999,17526,.18107E-3,.88E-6,0
ONEWEB-0607,2022-166AF,2026-07-15T03:12:45.052992,13.21826187,.00019,87.9241,238.4102,97.2867,262.8483,0,U,54671,999,17523,.19194E-3,.92E-6,0
ONEWEB-0608,2022-166AG,2026-07-15T03:22:24.337344,13.21824338,.0001744,87.9244,238.4063,87.7732,272.3601,0,U,54672,999,17524,.36038E-3,.162E-5,0
ONEWEB-0610,2022-166AH,2026-07-15T02:53:22.294752,13.21826427,.0001483,87.9235,238.4218,92.7343,267.3961,0,U,54673,999,17514,.16774E-3,.82E-6,0
ONEWEB-0611,2022-166AJ,2026-07-15T02:43:38.763840,13.21826507,.0002208,87.9234,238.4188,97.7915,262.3470,0,U,54674,999,17513,.6255E-4,.39E-6,0
ONEWEB-0612,2022-166AK,2026-07-15T03:03:03.032352,13.21826817,.000192,87.9246,238.4147,94.2930,265.8423,0,U,54675,999,17512,.7542E-4,.44E-6,0
ONEWEB-0615,2022-166AL,2026-07-15T04:22:58.082880,13.21823197,.0002247,87.9237,238.4156,103.9800,256.1584,0,U,54676,999,17514,-.43395E-4,-.5E-7,0
ONEWEB-0655,2022-166AM,2026-07-15T03:49:03.621216,13.21823931,.0001904,87.9234,238.4215,100.6025,259.5323,0,U,54677,999,17513,.13794E-3,.7E-6,0
ONEWEB-0659,2022-166AN,2026-07-15T04:13:17.371200,13.21824844,.0002183,87.9231,238.4178,96.6276,263.5107,0,U,54678,999,17522,-.27815E-3,-.102E-5,0
ONEWEB-0685,2022-166AP,2026-07-15T04:12:45.057600,13.21847830,.0001733,87.9230,238.4093,91.1589,268.9744,0,U,54679,999,17511,-.28119E-4,.1E-7,0
ONEWEB-0712,2022-166AQ,2026-07-15T02:28:09.289056,13.16595715,.0001823,87.9081,223.2296,106.7276,253.4056,0,U,54680,999,17573,-.17213E-3,-.53E-6,0
ONEWEB-0714,2022-166AR,2026-07-15T04:20:34.495584,13.21825586,.0002043,87.9233,238.4063,105.7437,254.3923,0,U,54681,999,17523,-.10691E-3,-.31E-6,0
ONEWEB-0532,2023-004A,2026-07-14T23:26:54.244608,13.17648373,.0001956,87.9143,0.3350,82.9377,277.1976,0,U,55140,999,17124,-.38476E-4,-.2E-7,0
ONEWEB-0533,2023-004B,2026-07-14T23:29:47.252832,13.12442284,.0001653,87.8966,345.1441,95.8186,264.3131,0,U,55141,999,17170,-.11213E-2,-.391E-5,0
ONEWEB-0541,2023-004C,2026-07-14T22:54:14.666688,13.11416051,.0002025,87.8892,15.5307,89.7155,270.4205,0,U,55142,999,16958,.15392E-2,.558E-5,0
ONEWEB-0543,2023-004D,2026-07-14T22:25:55.374816,13.18686601,.0001883,87.9187,329.9501,104.8276,255.3065,0,U,55143,999,17335,-.33966E-4,0,0
ONEWEB-0544,2023-004E,2026-07-14T22:16:12.340704,13.18687326,.0002062,87.9187,329.9509,101.8390,258.2973,0,U,55144,999,17335,-.17974E-4,.6E-7,0
ONEWEB-0560,2023-004F,2026-07-14T20:17:14.243136,13.18684771,.00020806,87.9188,329.9568,104.6855,255.4508,0,U,55145,999,17335,-.18625824E-3,-.61E-6,0
ONEWEB-0565,2023-004G,2026-07-14T21:56:47.622912,13.18687095,.0002289,87.9179,329.9684,94.3968,265.7426,0,U,55146,999,17335,.10648E-4,.17E-6,0
ONEWEB-0567,2023-004H,2026-07-14T21:47:04.410816,13.18687298,.0002268,87.9188,329.9564,99.1191,261.0198,0,U,55147,999,17335,-.11303E-3,-.32E-6,0
ONEWEB-0569,2023-004J,2026-07-14T21:20:19.243104,13.13470799,.0002704,87.8988,314.7087,112.3973,247.7442,0,U,55148,999,17381,-.77283E-3,-.269E-5,0
ONEWEB-0570,2023-004K,2026-07-14T21:34:56.023392,13.18686331,.000208,87.9187,329.9564,88.6711,271.4659,0,U,55149,999,17334,-.17922E-3,-.58E-6,0
ONEWEB-0571,2023-004L,2026-07-14T21:25:14.203200,13.18707704,.0003215,87.9187,329.9566,99.5603,260.5892,0,U,55150,999,17335,-.11107E-1,-.4365E-4,0
ONEWEB-0572,2023-004M,2026-07-15T00:11:50.951040,13.17651330,.0002003,87.9145,0.3300,92.6173,267.5188,0,U,55151,999,17114,.81682E-4,.45E-6,0
ONEWEB-0573,2023-004N,2026-07-14T21:15:29.684736,13.18685185,.0002778,87.9186,329.9598,96.2352,263.9097,0,U,55152,999,17334,-.64351E-3,-.241E-5,0
ONEWEB-0588,2023-004P,2026-07-14T21:05:48.312096,13.18686189,.0002165,87.9185,329.9609,85.9903,274.1477,0,U,55153,999,17334,.34006E-4,.26E-6,0
ONEWEB-0598,2023-004Q,2026-07-15T00:12:21.746592,13.11418825,.0002507,87.8886,15.5279,99.2656,260.8755,0,U,55154,999,16954,.47247E-4,.29E-6,0
ONEWEB-0599,2023-004R,2026-07-14T23:15:56.953152,13.17650317,.0001867,87.9144,0.3363,100.3601,259.7742,0,U,55155,999,17114,-.30742E-4,.1E-7,0
ONEWEB-0614,2023-004S,2026-07-15T00:05:01.781376,13.11418852,.0001775,87.8882,15.5370,84.3824,275.7506,0,U,55156,999,16948,-.61279E-3,-.204E-5,0
ONEWEB-0616,2023-004T,2026-07-15T00:16:41.853792,13.17650889,.000177,87.9146,0.3321,122.4284,237.7018,0,U,55157,999,17136,-.61304E-4,-.11E-6,0
