ONEWEB-0606             
1 54670U 22166AE  26196.16748228  .00000088  00000+0  18107-3 0  9996
2 54670  87.9233 238.4307 0002188  99.5733 260.5648 13.21825834175267
ONEWEB-0607             
1 54671U 22166AF  26196.13385478  .00000092  00000+0  19194-3 0  9990
2 54671  87.9241 238.4102 0001900  97.2867 262.8483 13.21826187175235
ONEWEB-0608             
1 54672U 22166AG  26196.14055946  .00000162  00000+0  36038-3 0  9990
2 54672  87.9244 238.4063 0001744  87.7732 272.3601 13.21824338175241
ONEWEB-0610             
1 54673U 22166AH  26196.12039693  .00000082  00000+0  16774-3 0  9996
2 54673  87.9235 238.4218 0001483  92.7343 267.3961 13.21826427175141
ONEWEB-0611             
1 54674U 22166AJ  26196.11364310  .00000039  00000+0  62550-4 0  9999
2 54674  87.9234 238.4188 0002208  97.7915 262.3470 13.21826507175131
ONEWEB-0612             
1 54675U 22166AK  26196.12711843  .00000044  00000+0  75420-4 0  9994
2 54675  87.9246 238.4147 0001920  94.2930 265.8423 13.21826817175128
ONEWEB-0615             
1 54676U 22166AL  26196.18261670 -.00000005  00000+0 -43395-4 0  9994
2 54676  87.9237 238.4156 0002247 103.9800 256.1584 13.21823197175147
ONEWEB-0655             
1 54677U 22166AM  26196.15906969  .00000070  00000+0  13794-3 0  9998
2 54677  87.9234 238.4215 0001904 100.6025 259.5323 13.21823931175136
ONEWEB-0659             
1 54678U 22166AN  26196.17589550 -.00000102  00000+0 -27815-3 0  9991
2 54678  87.9231 238.4178 0002183  96.6276 263.5107 13.21824844175223
ONEWEB-0685             
1 54679U 22166AP  26196.17552150  .00000001  00000+0 -28119-4 0  9994
2 54679  87.9230 238.4093 0001733  91.1589 268.9744 13.21847830175110
ONEWEB-0712             
1 54680U 22166AQ  26196.10288529 -.00000053  00000+0 -17213-3 0  9995
2 54680  87.9081 223.2296 0001823 106.7276 253.4056 13.16595715175738
ONEWEB-0714             
1 54681U 22166AR  26196.18095481 -.00000031  00000+0 -10691-3 0  9996
2 54681  87.9233 238.4063 0002043 105.7437 254.3923 13.21825586175237
ONEWEB-0532             
1 55140U 23004A   26195.97701672 -.00000002  00000+0 -38476-4 0  9991
2 55140  87.9143   0.3350 0001956  82.9377 277.1976 13.17648373171244
ONEWEB-0533             
1 55141U 23004B   26195.97901913 -.00000391  00000+0 -11213-2 0  9991
2 55141  87.8966 345.1441 0001653  95.8186 264.3131 13.12442284171703
ONEWEB-0541             
1 55142U 23004C   26195.95433642  .00000558  00000+0  15392-2 0  9994
2 55142  87.8892  15.5307 0002025  89.7155 270.4205 13.11416051169588
ONEWEB-0543             
1 55143U 23004D   26195.93466869  .00000000  00000+0 -33966-4 0  9992
2 55143  87.9187 329.9501 0001883 104.8276 255.3065 13.18686601173352
ONEWEB-0544             
1 55144U 23004E   26195.92792061  .00000006  00000+0 -17974-4 0  9995
2 55144  87.9187 329.9509 0002062 101.8390 258.2973 13.18687326173350
ONEWEB-0560             
1 55145U 23004F   26195.84530374 -.00000061  00000+0 -18626-3 0  9990
2 55145  87.9188 329.9568 0002080 104.6855 255.4508 13.18684771173358
ONEWEB-0565             
1 55146U 23004G   26195.91444008  .00000017  00000+0  10648-4 0  9993
2 55146  87.9179 329.9684 0002289  94.3968 265.7426 13.18687095173354
ONEWEB-0567             
1 55147U 23004H   26195.90768994 -.00000032  00000+0 -11303-3 0  9993
2 55147  87.9188 329.9564 0002268  99.1191 261.0198 13.18687298173350
ONEWEB-0569             
1 55148U 23004J   26195.88911161 -.00000269  00000+0 -77283-3 0  9998
2 55148  87.8988 314.7087 0002704 112.3973 247.7442 13.13470799173816
ONEWEB-0570             
1 55149U 23004K   26195.89925953 -.00000058  00000+0 -17922-3 0  9994
2 55149  87.9187 329.9564 0002080  88.6711 271.4659 13.18686331173347
ONEWEB-0571             
1 55150U 23004L   26195.89252550 -.00004365  00000+0 -11107-1 0  9994
2 55150  87.9187 329.9566 0003215  99.5603 260.5892 13.18707704173350
ONEWEB-0572             
1 55151U 23004M   26196.00822860  .00000045  00000+0  81682-4 0  9993
2 55151  87.9145   0.3300 0002003  92.6173 267.5188 13.17651330171143
ONEWEB-0573             
1 55152U 23004N   26195.88576024 -.00000241  00000+0 -64351-3 0  9990
2 55152  87.9186 329.9598 0002778  96.2352 263.9097 13.18685185173345
ONEWEB-0588             
1 55153U 23004P   26195.87903139  .00000026  00000+0  34006-4 0  9995
2 55153  87.9185 329.9609 0002165  85.9903 274.1477 13.18686189173346
ONEWEB-0598             
1 55154U 23004Q   26196.00858503  .00000029  00000+0  47247-4 0  9990
2 55154  87.8886  15.5279 0002507  99.2656 260.8755 13.11418825169549
ONEWEB-0599             
1 55155U 23004R   26195.96940918  .00000001  00000+0 -30742-4 0  9990
2 55155  87.9144   0.3363 0001867 100.3601 259.7742 13.17650317171148
ONEWEB-0614             
1 55156U 23004S   26196.00349284 -.00000204  00000+0 -61279-3 0  9990
2 55156  87.8882  15.5370 0001775  84.3824 275.7506 13.11418852169489
ONEWEB-0616             
1 55157U 23004T   26196.01159553 -.00000011  00000+0 -61304-4 0  9996
2 55157  87.9146   0.3321 0001770 122.4284 237.7018 13.17650889171361
